[{"OBJECT_NAME":"STARLINK-36546","OBJECT_ID":"2026-008Q","EPOCH":"2026-03-09T11:11:12.558912","MEAN_MOTION":15.27603549,"ECCENTRICITY":0.00037746,"INCLINATION":43.0026,"RA_OF_ASC_NODE":206.8678,"ARG_OF_PERICENTER":299.9737,"MEAN_ANOMALY":60.074,"EPHEMERIS_TYPE":0,"CLASSIFICATION_TYPE":"U","NORAD_CAT_ID":67459,"ELEMENT_SET_NO":999,"REV_AT_EPOCH":953,"BSTAR":0.00087949749,"MEAN_MOTION_DOT":0.00024039,"MEAN_MOTION_DDOT":0},{"OBJECT_NAME":"BREEZE-M DEB [TANK]","OBJECT_ID":"2004-022B","EPOCH":"2026-03-09T05:56:32.601120","MEAN_MOTION":6.50607245,"ECCENTRICITY":0.45003465,"INCLINATION":49.5299,"RA_OF_ASC_NODE":24.4655,"ARG_OF_PERICENTER":128.3201,"MEAN_ANOMALY":281.5139,"EPHEMERIS_TYPE":0,"CLASSIFICATION_TYPE":"U","NORAD_CAT_ID":28359,"ELEMENT_SET_NO":999,"REV_AT_EPOCH":48611,"BSTAR":0.0008325848,"MEAN_MOTION_DOT":8.251e-5,"MEAN_MOTION_DDOT":0}]
